OSCAR 7 (AO-7)          
1 07530U 74089B   12355.09192142 -.00000027  00000-0  10000-3 0  5616
2 07530 101.4148 345.2089 0011811 279.4262  80.5468 12.53593586743340
PHASE 3B (AO-10)        
1 14129U 83058B   12349.28502860 -.00000156  00000-0  10000-3 0   393
2 14129  26.8942 303.9982 6032457 216.7938  80.8193  2.05868823193933
UOSAT 2 (UO-11)         
1 14781U 84021B   12354.22979477  .00000484  00000-0  69750-4 0   558
2 14781  97.9297  51.9008 0010016 147.5406 212.6424 14.80697193547302
PACSAT (AO-16)          
1 20439U 90005D   12354.44794141  .00000105  00000-0  55029-4 0  6326
2 20439  98.4512 292.8262 0010821 335.8912  24.1762 14.32121876196512
LUSAT (LO-19)           
1 20442U 90005G   12355.42105005  .00000084  00000-0  46807-4 0  5659
2 20442  98.4198 296.1448 0011309 322.8415  37.1977 14.32336791196847
EYESAT-1 (AO-27)        
1 22825U 93061C   12353.96273575  .00000067  00000-0  43212-4 0  2707
2 22825  98.5961 294.0921 0009231  96.0887 264.1345 14.29518647  2889
ITAMSAT (IO-26)         
1 22826U 93061D   12354.13788189  .00000089  00000-0  51416-4 0   257
2 22826  98.5905 294.5904 0009842  89.0698 271.1612 14.29797869  3032
RADIO ROSTO (RS-15)     
1 23439U 94085A   12352.53029232 -.00000039  00000-0  10000-3 0  5405
2 23439  64.8188 355.7584 0158582 186.1848 173.7118 11.27558498740368
JAS-2 (FO-29)           
1 24278U 96046B   12354.28066995  .00000005  00000-0  44774-4 0    51
2 24278  98.5794  70.7099 0349590 270.2169  85.8920 13.52993748806980
TECHSAT 1B (GO-32)      
1 25397U 98043D   12355.05896818 -.00000081  00000-0 -17603-4 0  9533
2 25397  98.3886 324.8545 0002094  90.2536 269.8870 14.23312149750463
SEDSAT 1 (SO-33)        
1 25509U 98061B   12354.42021102  .00000443  00000-0  77486-4 0  3937
2 25509  31.4334   5.3158 0351473  24.3143 337.3630 14.28938113739164
ISS (ZARYA)             
1 25544U 98067A   12355.24831213  .00014368  00000-0  24069-3 0  8670
2 25544  51.6488 277.2423 0017296  65.7718  91.3422 15.51963148806918
PCSAT (NO-44)           
1 26931U 01043C   12354.54590552  .00000324  00000-0  15791-3 0  2155
2 26931  67.0524   2.5853 0004751 261.9817  98.0772 14.29871827585742
SAUDISAT 1C (SO-50)     
1 27607U 02058C   12354.84687193  .00000952  00000-0  16508-3 0  9458
2 27607  64.5577  90.0164 0068155 210.3144 149.3989 14.72692159537305
CUTE-1 (CO-55)          
1 27844U 03031E   12354.02673936  .00000218  00000-0  12038-3 0  5357
2 27844  98.7017 359.7213 0010438  52.0669 308.1436 14.21132004491145
CUBESAT XI-IV (CO-57)   
1 27848U 03031J   12353.57059888  .00000168  00000-0  97696-4 0  4834
2 27848  98.7105 358.6923 0010409  57.8931 302.3269 14.20868916491019
MOZHAYETS 4 (RS-22)     
1 27939U 03042A   12355.36187850  .00000575  00000-0  11738-3 0   118
2 27939  97.7981 186.5400 0014142  38.2356 321.9847 14.64263220493129
ECHO (AO-51)            
1 28375U 04025K   12354.82414761  .00000122  00000-0  49439-4 0  4436
2 28375  98.1739 311.7373 0082543 198.5754 161.2408 14.41046408445502
HAMSAT (VO-52)          
1 28650U 05017B   12354.10701047  .00001646  00000-0  20529-3 0  2945
2 28650  97.5802  15.8901 0026655 150.8706 209.4034 14.83452451412386
CUBESAT XI-V (CO-58)    
1 28895U 05043F   12353.61836316  .00000926  00000-0  19800-3 0  3578
2 28895  97.8889 211.5334 0016632 292.1476  67.7966 14.60895949380581
CUTE-1.7+APD II (CO-65) 
1 32785U 08021C   12355.17127415  .00000942  00000-0  12085-3 0  5024
2 32785  97.7762  51.6221 0014410 169.4132 190.7387 14.83469211251336
DELFI-C3 (DO-64)        
1 32789U 08021G   12355.07622594  .00004773  00000-0  53451-3 0  5078
2 32789  97.7905  55.4564 0014372 163.3383 196.8311 14.87257320251490
YUBILEINY (RS-30)       
1 32953U 08025A   12355.05603788  .00000010  00000-0  00000+0 0  4276
2 32953  82.4991 179.5635 0018056 263.5945  96.3084 12.43030439207656
PRISM                   
1 33493U 09002B   12355.10632456  .00002648  00000-0  31626-3 0  3654
2 33493  98.1936 140.5335 0019214  56.3778 303.9274 14.84993581211334
STARS                   
1 33498U 09002G   12354.15877410  .00001409  00000-0  22525-3 0  9113
2 33498  98.1284 110.4741 0012426 196.6406 163.4393 14.73382433209756
KKS-1                   
1 33499U 09002H   12354.27356482  .00000924  00000-0  15500-3 0  9282
2 33499  98.1286 108.9070 0009408 198.1945 161.8927 14.72061809209651
SWISSCUBE               
1 35932U 09051B   12354.28872096  .00005356  00000-0  12986-2 0  9069
2 35932  98.3482  96.4082 0008549 242.2613 117.7537 14.53329045171740
BEESAT                  
1 35933U 09051C   12354.82964295  .00007980  00000-0  19109-2 0  1233
2 35933  98.3486  97.4558 0005394 261.2112  98.8269 14.53774057171887
ITUPSAT1                
1 35935U 09051E   12354.75018355  .00001972  00000-0  48744-3 0   966
2 35935  98.3567  97.5496 0007804 254.2221 105.8061 14.53119607171795
HOPE-1 (HO-68)          
1 36122U 09072B   12355.12928600 -.00000044  00000-0  00000+0 0  1154
2 36122 100.3365  50.5112 0007711  46.6270 313.5494 13.16300763144850
JUGNU                   
1 37839U 11058B   12355.15938668  .00000620  00000-0  19019-3 0  2957
2 37839  19.9593 311.5464 0019807 110.1967 250.0461 14.12114086 61566
SRMSAT                  
1 37841U 11058D   12354.26454615  .00000264  00000-0  00000+0 0  2967
2 37841  19.9718 325.4782 0011421  63.4779 296.6829 14.10189008 61344
RAX-2                   
1 37853U 11061D   12355.26617832  .00008865  00000-0  68278-3 0  3766
2 37853 101.7038 120.3496 0241167 179.7771 180.3586 14.81851461 61932
AUBIESAT-1 (AO-71)      
1 37854U 11061E   12354.89434691  .00010245  00000-0  77357-3 0  3746
2 37854 101.7068 120.3317 0241571 179.8836 180.2462 14.82390359 61881
M-CUBED & EXP-1 PRIME   
1 37855U 11061F   12354.25605184  .00009274  00000-0  70346-3 0  3701
2 37855 101.7068 119.2772 0242605 181.8986 178.1325 14.82135791 61782
CHIBIS-M (RS-39)        
1 38051U 11062C   12355.24855707  .00012044  00000-0  44509-3 0  9997
2 38051  51.6376 350.9402 0012720 348.6643 120.7059 15.28054550 50381
